NORAD_CAT_ID,OBJECT_NAME,OBJECT_TYPE,EPOCH,MEAN_MOTION,ECCENTRICITY,INCLINATION,RA_OF_ASC_NODE,ARG_OF_PERICENTER,MEAN_ANOMALY,BSTAR,MEAN_MOTION_DOT,MEAN_MOTION_DDOT,TLE_LINE0,TLE_LINE1,TLE_LINE2,SEMIMAJOR_AXIS,PERIOD,APOGEE,PERIGEE,DECAYED
52848.0,STARLINK-4202,PAYLOAD,2023-11-07 03:53:28,15.08783562,0.0001515,53.216,265.7544,91.8178,268.2988,0.0006511,0.00010074,0.0,0 STARLINK-4202,1 52848U 22062U   23311.16213449  .00010074  00000-0  65110-3 0  9997,2 52848  53.2160 265.7544 0001515  91.8178 268.2988 15.08783562 77423,6918.053,95.441,540.966,538.87,0.0
52848.0,STARLINK-4202,PAYLOAD,2023-11-07 07:04:15,15.0878197,0.0001522,53.216,265.1603,88.1248,271.9919,0.0020789,0.000329,0.0,0 STARLINK-4202,1 52848U 22062U   23311.29462237  .00032900  00000-0  20789-2 0  9996,2 52848  53.2160 265.1603 0001522  88.1248 271.9919 15.08781970 76951,6918.058,95.441,540.976,538.87,0.0
52848.0,STARLINK-4202,PAYLOAD,2023-11-08 03:44:17,15.0884884,0.0001462,53.2154,261.2952,92.1527,267.9632,0.0022864,0.00036297,0.0,0 STARLINK-4202,1 52848U 22062U   23312.15575369  .00036297  00000-0  22864-2 0  9992,2 52848  53.2154 261.2952 0001462  92.1527 267.9632 15.08848840 77572,6917.853,95.437,540.73,538.707,0.0
52848.0,STARLINK-4202,PAYLOAD,2023-11-09 03:35:03,15.08870316,0.0001463,53.2154,256.8344,92.8388,267.2771,0.0013063,0.0002058,0.0,0 STARLINK-4202,1 52848U 22062U   23313.14934799  .00020580  00000-0  13063-2 0  9997,2 52848  53.2154 256.8344 0001463  92.8388 267.2771 15.08870316 77727,6917.788,95.436,540.665,538.641,0.0
52848.0,STARLINK-4202,PAYLOAD,2023-11-09 05:10:26,15.08872839,0.0001511,53.2156,256.5375,91.3728,268.7437,0.0016057,0.00025382,0.0,0 STARLINK-4202,1 52848U 22062U   23313.21558718  .00025382  00000-0  16057-2 0  9999,2 52848  53.2156 256.5375 0001511  91.3728 268.7437 15.08872839 77240,6917.78,95.435,540.69,538.6,0.0
52848.0,STARLINK-4202,PAYLOAD,2023-11-10 03:25:51,15.0884274,0.0001129,53.2154,252.3742,104.0087,256.1031,0.0010559,0.00016558,0.0,0 STARLINK-4202,1 52848U 22062U   23314.14295157  .00016558  00000-0  10559-2 0  9993,2 52848  53.2154 252.3742 0001129 104.0087 256.1031 15.08842740 77873,6917.872,95.437,540.518,538.956,0.0
52848.0,STARLINK-4202,PAYLOAD,2023-11-10 12:58:09,15.08840877,0.0001403,53.2161,250.5897,86.0713,274.0439,0.00041844,6.378e-05,0.0,0 STARLINK-4202,1 52848U 22062U   23314.54039307  .00006378  00000-0  41844-3 0  9991,2 52848  53.2161 250.5897 0001403  86.0713 274.0439 15.08840877 77445,6917.878,95.437,540.713,538.772,0.0
52848.0,STARLINK-4202,PAYLOAD,2023-11-11 12:48:56,15.08840108,0.0001243,53.2152,246.1292,97.9956,262.1177,0.0004527,6.924e-05,0.0,0 STARLINK-4202,1 52848U 22062U   23315.53399300  .00006924  00000-0  45270-3 0  9997,2 52848  53.2152 246.1292 0001243  97.9956 262.1177 15.08840108 77597,6917.88,95.438,540.605,538.885,0.0
52848.0,STARLINK-4202,PAYLOAD,2023-11-11 19:10:29,15.08843024,0.0001243,53.2149,244.9418,97.6301,262.4833,0.00017094,2.434e-05,0.0,0 STARLINK-4202,1 52848U 22062U   23315.79895295  .00002434  00000-0  17094-3 0  9994,2 52848  53.2149 244.9418 0001243  97.6301 262.4833 15.08843024 78122,6917.871,95.437,540.596,538.876,0.0
52848.0,STARLINK-4202,PAYLOAD,2023-11-12 12:39:44,15.0884219,0.000123,53.214,241.6689,101.3631,258.7499,0.00012942,1.773e-05,0.0,0 STARLINK-4202,1 52848U 22062U   23316.52759326  .00001773  00000-0  12942-3 0  9992,2 52848  53.2140 241.6689 0001230 101.3631 258.7499 15.08842190 77748,6917.874,95.437,540.59,538.888,0.0
52848.0,STARLINK-4202,PAYLOAD,2023-11-13 01:22:48,15.08849047,0.0001268,53.2155,239.2891,99.4035,260.7101,0.00011634,1.565e-05,0.0,0 STARLINK-4202,1 52848U 22062U   23317.05750985  .00001565  00000-0  11634-3 0  9999,2 52848  53.2155 239.2891 0001268  99.4035 260.7101 15.08849047 78313,6917.853,95.437,540.595,538.841,0.0
52848.0,STARLINK-4202,PAYLOAD,2023-11-13 04:33:34,15.08855142,0.0001305,53.2157,238.6926,107.5964,252.517,0.00021204,3.09e-05,0.0,0 STARLINK-4202,1 52848U 22062U   23317.18998617  .00003090  00000-0  21204-3 0  9998,2 52848  53.2157 238.6926 0001305 107.5964 252.5170 15.08855142 77846,6917.834,95.437,540.602,538.796,0.0
52848.0,STARLINK-4202,PAYLOAD,2023-11-13 12:30:31,15.08838342,0.000178,53.2159,237.2104,79.3526,280.7667,6.4292e-05,7.35e-06,0.0,0 STARLINK-4202,1 52848U 22062U   23317.52119656  .00000735  00000-0  64292-4 0  9992,2 52848  53.2159 237.2104 0001780  79.3526 280.7667 15.08838342 78385,6917.885,95.438,540.982,538.519,0.0
52848.0,STARLINK-4202,PAYLOAD,2023-11-14 04:24:22,15.08843129,0.0001371,53.2157,234.2338,90.817,269.2979,0.00012967,1.777e-05,0.0,0 STARLINK-4202,1 52848U 22062U   23318.18359317  .00001777  00000-0  12967-3 0  9993,2 52848  53.2157 234.2338 0001371  90.8170 269.2979 15.08843129 77991,6917.871,95.437,540.684,538.787,0.0
52848.0,STARLINK-4202,PAYLOAD,2023-11-15 01:04:23,15.08844676,0.0001541,53.2175,230.3663,89.3991,270.7178,-1.3914e-05,-5.09e-06,0.0,0 STARLINK-4202,1 52848U 22062U   23319.04471328 -.00000509  00000-0 -13914-4 0  9994,2 52848  53.2175 230.3663 0001541  89.3991 270.7178 15.08844676 78618,6917.866,95.437,540.797,538.665,0.0
52848.0,STARLINK-4202,PAYLOAD,2023-11-15 04:15:09,15.08843726,0.0001548,53.2172,229.7716,100.2775,259.8391,4.213e-05,3.83e-06,0.0,0 STARLINK-4202,1 52848U 22062U   23319.17719320  .00000383  00000-0  42130-4 0  9995,2 52848  53.2172 229.7716 0001548 100.2775 259.8391 15.08843726 78144,6917.869,95.437,540.805,538.663,0.0
52848.0,STARLINK-4202,PAYLOAD,2023-11-16 00:55:10,15.08839477,0.0001287,53.2142,225.9069,79.5042,280.6095,7.978e-05,9.82e-06,0.0,0 STARLINK-4202,1 52848U 22062U   23320.03831643  .00000982  00000-0  79780-4 0  9991,2 52848  53.2142 225.9069 0001287  79.5042 280.6095 15.08839477 78764,6917.882,95.438,540.637,538.857,0.0
52848.0,STARLINK-4202,PAYLOAD,2023-11-16 18:24:24,15.0884773,0.0001079,53.2151,222.6378,82.3342,277.7773,-0.00014947,-2.666e-05,0.0,0 STARLINK-4202,1 52848U 22062U   23320.76695369 -.00002666  00000-0 -14947-3 0  9990,2 52848  53.2151 222.6378 0001079  82.3342 277.7773 15.08847730 78384,6917.857,95.437,540.468,538.975,0.0
52848.0,STARLINK-4202,PAYLOAD,2023-11-17 03:56:44,15.08831916,0.0001345,53.214,220.8545,97.8512,262.2632,0.00060207,9.305e-05,0.0,0 STARLINK-4202,1 52848U 22062U   23321.16439953  .00009305  00000-0  60207-3 0  9995,2 52848  53.2140 220.8545 0001345  97.8512 262.2632 15.08831916 78937,6917.905,95.438,540.701,538.84,0.0
52848.0,STARLINK-4202,PAYLOAD,2023-11-17 10:18:16,15.08841325,0.0001285,53.2148,219.6622,88.077,272.037,5.1448e-05,5.31e-06,0.0,0 STARLINK-4202,1 52848U 22062U   23321.42935424  .00000531  00000-0  51448-4 0  9998,2 52848  53.2148 219.6622 0001285  88.0770 272.0370 15.08841325 78481,6917.876,95.437,540.63,538.852,0.0
52848.0,STARLINK-4202,PAYLOAD,2023-11-18 02:12:08,15.08837453,0.0001658,53.2183,216.6888,77.2833,282.8345,-7.3007e-05,-1.45e-05,0.0,0 STARLINK-4202,1 52848U 22062U   23322.09176642 -.00001450  00000-0 -73007-4 0  9999,2 52848  53.2183 216.6888 0001658  77.2833 282.8345 15.08837453 79079,6917.888,95.438,540.9,538.606,0.0
52848.0,STARLINK-4202,PAYLOAD,2023-11-18 10:09:03,15.0884278,0.0001575,53.2177,215.2028,81.4685,278.6485,1.0484e-05,-1.21e-06,0.0,0 STARLINK-4202,1 52848U 22062U   23322.42296099 -.00000121  00000-0  10484-4 0  9998,2 52848  53.2177 215.2028 0001575  81.4685 278.6485 15.08842780 79126,6917.872,95.437,540.826,538.647,0.0
52848.0,STARLINK-4202,PAYLOAD,2023-11-19 09:59:50,15.08833733,0.0001555,53.2167,210.7438,84.9542,275.1628,0.00019566,2.827e-05,0.0,0 STARLINK-4202,1 52848U 22062U   23323.41656192  .00002827  00000-0  19566-3 0  9995,2 52848  53.2167 210.7438 0001555  84.9542 275.1628 15.08833733 78788,6917.9,95.438,540.84,538.689,0.0
52848.0,STARLINK-4202,PAYLOAD,2023-11-19 16:21:23,15.08839048,0.0001621,53.2163,209.5546,79.9008,280.2167,9.6647e-05,1.25e-05,0.0,0 STARLINK-4202,1 52848U 22062U   23323.68152047  .00001250  00000-0  96647-4 0  9999,2 52848  53.2163 209.5546 0001621  79.9008 280.2167 15.08839048 79315,6917.883,95.438,540.87,538.627,0.0
52848.0,STARLINK-4202,PAYLOAD,2023-11-19 22:42:55,15.08836195,0.0001458,53.2153,208.3639,84.17,275.9458,0.00011943,1.613e-05,0.0,0 STARLINK-4202,1 52848U 22062U   23323.94648124  .00001613  00000-0  11943-3 0  9992,2 52848  53.2153 208.3639 0001458  84.1700 275.9458 15.08836195 78862,6917.892,95.438,540.766,538.748,0.0
52848.0,STARLINK-4202,PAYLOAD,2023-11-20 01:53:42,15.08840728,0.0001481,53.2152,207.7686,85.0459,275.0702,9.3622e-05,1.202e-05,0.0,0 STARLINK-4202,1 52848U 22062U   23324.07895917  .00001202  00000-0  93622-4 0  9990,2 52848  53.2152 207.7686 0001481  85.0459 275.0702 15.08840728 78885,6917.878,95.438,540.768,538.719,0.0
52848.0,STARLINK-4202,PAYLOAD,2023-11-20 22:33:41,15.08861627,0.0001451,53.2146,203.902,84.7296,275.3862,-0.00013566,-2.448e-05,0.0,0 STARLINK-4202,1 52848U 22062U   23324.94006692 -.00002448  00000-0 -13566-3 0  9993,2 52848  53.2146 203.9020 0001451  84.7296 275.3862 15.08861627 79017,6917.814,95.436,540.683,538.676,0.0
52848.0,STARLINK-4202,PAYLOAD,2023-11-21 01:44:28,15.08847328,0.0001559,53.2155,203.3071,91.4641,268.653,0.00010366,1.362e-05,0.0,0 STARLINK-4202,1 52848U 22062U   23325.07255200  .00001362  00000-0  10366-3 0  9996,2 52848  53.2155 203.3071 0001559  91.4641 268.6530 15.08847328 79520,6917.858,95.437,540.801,538.644,0.0
52848.0,STARLINK-4202,PAYLOAD,2023-11-21 09:41:24,15.08840543,0.0001614,53.2161,201.8216,86.3094,273.8083,3.8601e-05,3.26e-06,0.0,0 STARLINK-4202,1 52848U 22062U   23325.40375898  .00000326  00000-0  38601-4 0  9991,2 52848  53.2161 201.8216 0001614  86.3094 273.8083 15.08840543 79576,6917.879,95.438,540.86,538.627,0.0
52848.0,STARLINK-4202,PAYLOAD,2023-11-21 20:49:06,15.08839729,0.0001471,53.2157,199.7397,92.6858,267.4303,9.3707e-05,1.204e-05,0.0,0 STARLINK-4202,1 52848U 22062U   23325.86743906  .00001204  00000-0  93707-4 0  9994,2 52848  53.2157 199.7397 0001471  92.6858 267.4303 15.08839729 79157,6917.881,95.438,540.764,538.729,0.0
